NORAD_CAT_ID,OBJECT_NAME,OBJECT_TYPE,EPOCH,MEAN_MOTION,ECCENTRICITY,INCLINATION,RA_OF_ASC_NODE,ARG_OF_PERICENTER,MEAN_ANOMALY,BSTAR,MEAN_MOTION_DOT,MEAN_MOTION_DDOT,TLE_LINE0,TLE_LINE1,TLE_LINE2,SEMIMAJOR_AXIS,PERIOD,APOGEE,PERIGEE,DECAYED
51745.0,STARLINK-3449,PAYLOAD,2023-05-02 13:04:41,15.08844801,0.0001287,53.2173,317.489,92.6072,267.5068,0.00018029,2.583e-05,0.0,0 STARLINK-3449,1 51745U 22016AH  23122.54492068  .00002583  00000-0  18029-3 0  9992,2 51745  53.2173 317.4890 0001287  92.6072 267.5068 15.08844801 66231,6917.866,95.437,540.621,538.84,0.0
51745.0,STARLINK-3449,PAYLOAD,2023-05-02 19:26:13,15.0884854,0.0001391,53.2171,316.2999,94.6281,265.487,0.00022634,3.317e-05,0.0,0 STARLINK-3449,1 51745U 22016AH  23122.80987843  .00003317  00000-0  22634-3 0  9994,2 51745  53.2171 316.2999 0001391  94.6281 265.4870 15.08848540 66272,6917.854,95.437,540.682,538.757,0.0
51745.0,STARLINK-3449,PAYLOAD,2023-05-03 12:55:28,15.08838057,0.0001431,53.2164,313.0286,81.6974,278.4181,0.00010369,1.363e-05,0.0,0 STARLINK-3449,1 51745U 22016AH  23123.53852456  .00001363  00000-0  10369-3 0  9997,2 51745  53.2164 313.0286 0001431  81.6974 278.4181 15.08838057 67517,6917.886,95.438,540.741,538.761,0.0
51745.0,STARLINK-3449,PAYLOAD,2023-05-03 19:17:00,15.08838391,0.000127,53.2166,311.8386,89.0839,271.0299,4.0117e-05,3.51e-06,0.0,0 STARLINK-3449,1 51745U 22016AH  23123.80348348  .00000351  00000-0  40117-4 0  9998,2 51745  53.2166 311.8386 0001270  89.0839 271.0299 15.08838391 66428,6917.885,95.438,540.629,538.872,0.0
51745.0,STARLINK-3449,PAYLOAD,2023-05-04 12:46:15,15.08842643,0.0001222,53.2163,308.5666,79.6721,280.4409,0.00010042,1.311e-05,0.0,0 STARLINK-3449,1 51745U 22016AH  23124.53212245  .00001311  00000-0  10042-3 0  9995,2 51745  53.2163 308.5666 0001222  79.6721 280.4409 15.08842643 66535,6917.872,95.437,540.583,538.892,0.0
51745.0,STARLINK-3449,PAYLOAD,2023-05-04 17:32:24,15.08848337,0.0001237,53.2163,307.6748,80.0292,280.084,0.00022132,3.237e-05,0.0,0 STARLINK-3449,1 51745U 22016AH  23124.73084025  .00003237  00000-0  22132-3 0  9992,2 51745  53.2163 307.6748 0001237  80.0292 280.0840 15.08848337 66565,6917.855,95.437,540.576,538.864,0.0
51745.0,STARLINK-3449,PAYLOAD,2023-05-04 22:18:33,15.08854853,0.0001266,53.2162,306.7827,76.4607,283.6526,0.00035814,5.419e-05,0.0,0 STARLINK-3449,1 51745U 22016AH  23124.92955739  .00005419  00000-0  35814-3 0  9997,2 51745  53.2162 306.7827 0001266  76.4607 283.6526 15.08854853 67722,6917.835,95.437,540.576,538.824,0.0
51745.0,STARLINK-3449,PAYLOAD,2023-05-05 04:40:06,15.08839778,0.0001129,53.2165,305.593,88.7028,271.4093,0.00013562,1.871e-05,0.0,0 STARLINK-3449,1 51745U 22016AH  23125.19452202  .00001871  00000-0  13562-3 0  9998,2 51745  53.2165 305.5930 0001129  88.7028 271.4093 15.08839778 67765,6917.881,95.438,540.527,538.965,0.0
51745.0,STARLINK-3449,PAYLOAD,2023-05-05 18:58:34,15.08847485,0.0001144,53.2163,302.9174,82.7966,277.3156,0.00022982,3.372e-05,0.0,0 STARLINK-3449,1 51745U 22016AH  23125.79067983  .00003372  00000-0  22982-3 0  9996,2 51745  53.2163 302.9174 0001144  82.7966 277.3156 15.08847485 66720,6917.858,95.437,540.514,538.931,0.0
51745.0,STARLINK-3449,PAYLOAD,2023-05-06 15:38:35,15.0884562,0.0001002,53.2153,299.051,85.5712,274.5394,0.00020362,2.955e-05,0.0,0 STARLINK-3449,1 51745U 22016AH  23126.65180016  .00002955  00000-0  20362-3 0  9991,2 51745  53.2153 299.0510 0001002  85.5712 274.5394 15.08845620 66858,6917.863,95.437,540.421,539.035,0.0
51745.0,STARLINK-3449,PAYLOAD,2023-05-07 04:21:40,15.08841839,0.0001437,53.2154,296.668,73.4209,286.6941,0.00030059,4.499e-05,0.0,0 STARLINK-3449,1 51745U 22016AH  23127.18172237  .00004499  00000-0  30059-3 0  9995,2 51745  53.2154 296.6680 0001437  73.4209 286.6941 15.08841839 68064,6917.875,95.437,540.734,538.746,0.0
51745.0,STARLINK-3449,PAYLOAD,2023-05-07 18:40:09,15.08829294,0.0001235,53.2166,293.9977,69.4935,290.619,-4.5051e-05,-1.005e-05,0.0,0 STARLINK-3449,1 51745U 22016AH  23127.77788984 -.00001005  00000-0 -45051-4 0  9993,2 51745  53.2166 293.9977 0001235  69.4935 290.6190 15.08829294 68155,6917.913,95.438,540.632,538.924,0.0
51745.0,STARLINK-3449,PAYLOAD,2023-05-08 18:30:56,15.0884704,0.0001252,53.2158,289.539,64.918,295.1942,0.00046364,7.1e-05,0.0,0 STARLINK-3449,1 51745U 22016AH  23128.77148993  .00007100  00000-0  46364-3 0  9991,2 51745  53.2158 289.5390 0001252  64.9180 295.1942 15.08847040 67172,6917.859,95.437,540.59,538.858,0.0
51745.0,STARLINK-3449,PAYLOAD,2023-05-10 03:54:02,15.08848601,9.81e-05,53.2152,283.2909,71.1678,288.9421,0.00030494,4.57e-05,0.0,0 STARLINK-3449,1 51745U 22016AH  23130.16252737  .00004570  00000-0  30494-3 0  9994,2 51745  53.2152 283.2909 0000981  71.1678 288.9421 15.08848601 67382,6917.854,95.437,540.398,539.04,0.0
51745.0,STARLINK-3449,PAYLOAD,2023-05-10 18:12:30,15.08849473,0.0001061,53.216,280.613,86.2086,273.9027,0.00019341,2.792e-05,0.0,0 STARLINK-3449,1 51745U 22016AH  23130.75868553  .00002792  00000-0  19341-3 0  9990,2 51745  53.2160 280.6130 0001061  86.2086 273.9027 15.08849473 67472,6917.851,95.437,540.45,538.982,0.0
51745.0,STARLINK-3449,PAYLOAD,2023-05-11 13:17:08,15.08841683,0.0001001,53.2156,277.0458,83.041,277.0696,6.5927e-05,7.62e-06,0.0,0 STARLINK-3449,1 51745U 22016AH  23131.55356896  .00000762  00000-0  65927-4 0  9998,2 51745  53.2156 277.0458 0001001  83.0410 277.0696 15.08841683 67595,6917.875,95.437,540.433,539.048,0.0
51745.0,STARLINK-3449,PAYLOAD,2023-05-11 16:27:54,15.08846914,9.9e-05,53.2158,276.4512,80.0301,280.0803,8.7207e-05,1.101e-05,0.0,0 STARLINK-3449,1 51745U 22016AH  23131.68604664  .00001101  00000-0  87207-4 0  9994,2 51745  53.2158 276.4512 0000990  80.0301 280.0803 15.08846914 67612,6917.859,95.437,540.409,539.039,0.0
51745.0,STARLINK-3449,PAYLOAD,2023-05-12 16:18:41,15.08838606,0.0001017,53.2151,271.9912,80.4726,279.6381,6.273e-05,7.11e-06,0.0,0 STARLINK-3449,1 51745U 22016AH  23132.67965036  .00000711  00000-0  62730-4 0  9997,2 51745  53.2151 271.9912 0001017  80.4726 279.6381 15.08838606 68890,6917.885,95.438,540.453,539.046,0.0
51745.0,STARLINK-3449,PAYLOAD,2023-05-13 12:58:42,15.08834789,0.0001015,53.215,268.1263,92.499,267.6118,-3.7816e-05,-8.89e-06,0.0,0 STARLINK-3449,1 51745U 22016AH  23133.54077431 -.00000889  00000-0 -37816-4 0  9992,2 51745  53.2150 268.1263 0001015  92.4990 267.6118 15.08834789 67892,6917.896,95.438,540.463,539.059,0.0
51745.0,STARLINK-3449,PAYLOAD,2023-05-13 16:09:29,15.08837098,9.99e-05,53.2147,267.533,101.9524,258.158,8.9587e-05,1.138e-05,0.0,0 STARLINK-3449,1 51745U 22016AH  23133.67325269  .00001138  00000-0  89587-4 0  9999,2 51745  53.2147 267.5330 0000999 101.9524 258.1580 15.08837098 67912,6917.889,95.438,540.445,539.063,0.0
51745.0,STARLINK-3449,PAYLOAD,2023-05-14 01:41:47,15.08843676,9.83e-05,53.2154,265.7483,99.2936,260.8167,7.8303e-05,9.59e-06,0.0,0 STARLINK-3449,1 51745U 22016AH  23134.07068859  .00000959  00000-0  78303-4 0  9997,2 51745  53.2154 265.7483 0000983  99.2936 260.8167 15.08843676 69101,6917.869,95.437,540.414,539.054,0.0
51745.0,STARLINK-3449,PAYLOAD,2023-05-14 14:24:53,15.08833638,0.0001224,53.2154,263.3682,90.9536,269.1596,-4.1361e-05,-9.46e-06,0.0,0 STARLINK-3449,1 51745U 22016AH  23134.60061697 -.00000946  00000-0 -41361-4 0  9991,2 51745  53.2154 263.3682 0001224  90.9536 269.1596 15.08833638 69182,6917.9,95.438,540.612,538.918,0.0
51745.0,STARLINK-3449,PAYLOAD,2023-05-14 17:35:39,15.0883978,0.0001128,53.2165,262.7721,89.5267,270.5855,2.8363e-05,1.64e-06,0.0,0 STARLINK-3449,1 51745U 22016AH  23134.73309676  .00000164  00000-0  28363-4 0  9994,2 51745  53.2165 262.7721 0001128  89.5267 270.5855 15.08839780 68074,6917.881,95.438,540.526,538.966,0.0
51745.0,STARLINK-3449,PAYLOAD,2023-05-15 12:40:17,15.08836409,0.0001025,53.2163,259.2052,97.6754,262.4355,0.00010665,1.41e-05,0.0,0 STARLINK-3449,1 51745U 22016AH  23135.52797930  .00001410  00000-0  10665-3 0  9996,2 51745  53.2163 259.2052 0001025  97.6754 262.4355 15.08836409 68190,6917.891,95.438,540.465,539.047,0.0
51745.0,STARLINK-3449,PAYLOAD,2023-05-15 15:51:03,15.08844107,0.0001026,53.2164,258.6102,103.1263,256.9843,8.1522e-05,1.01e-05,0.0,0 STARLINK-3449,1 51745U 22016AH  23135.66045416  .00001010  00000-0  81522-4 0  9993,2 51745  53.2164 258.6102 0001026 103.1263 256.9843 15.08844107 69341,6917.868,95.437,540.443,539.023,0.0
51745.0,STARLINK-3449,PAYLOAD,2023-05-16 12:31:04,15.08834811,0.0001089,53.216,254.7447,93.9148,266.1969,7.9737e-05,9.81e-06,0.0,0 STARLINK-3449,1 51745U 22016AH  23136.52158151  .00000981  00000-0  79737-4 0  9991,2 51745  53.2160 254.7447 0001089  93.9148 266.1969 15.08834811 69470,6917.896,95.438,540.515,539.008,0.0
51745.0,STARLINK-3449,PAYLOAD,2023-05-17 13:57:14,15.08842644,0.0001041,53.2157,249.9873,85.8831,274.228,4.5816e-05,4.42e-06,0.0,0 STARLINK-3449,1 51745U 22016AH  23137.58141785  .00000442  00000-0  45816-4 0  9996,2 51745  53.2157 249.9873 0001041  85.8831 274.2280 15.08842644 69639,6917.872,95.437,540.457,539.017,0.0
51745.0,STARLINK-3449,PAYLOAD,2023-05-18 12:12:38,15.08837711,0.0001044,53.2157,245.8236,90.3718,269.7394,3.4344e-05,2.59e-06,0.0,0 STARLINK-3449,1 51745U 22016AH  23138.50878081  .00000259  00000-0  34344-4 0  9995,2 51745  53.2157 245.8236 0001044  90.3718 269.7394 15.08837711 69774,6917.887,95.438,540.475,539.03,0.0
51745.0,STARLINK-3449,PAYLOAD,2023-05-18 16:58:47,15.08842969,0.0001069,53.2163,244.9312,92.2789,267.8326,7.6019e-05,9.22e-06,0.0,0 STARLINK-3449,1 51745U 22016AH  23138.70749610  .00000922  00000-0  76019-4 0  9994,2 51745  53.2163 244.9312 0001069  92.2789 267.8326 15.08842969 68675,6917.871,95.437,540.476,538.997,0.0
51745.0,STARLINK-3449,PAYLOAD,2023-05-19 07:17:16,15.08838873,0.0001311,53.2181,242.2557,85.7689,274.3453,2.1566e-05,5.5e-07,0.0,0 STARLINK-3449,1 51745U 22016AH  23139.30366133  .00000055  00000-0  21566-4 0  9990,2 51745  53.2181 242.2557 0001311  85.7689 274.3453 15.08838873 69891,6917.884,95.438,540.656,538.842,0.0
